start=new Date('2021-12-15T00:00:00.000Z').valueOf();
sats=[{"ECCENTRICITY":"0.00022430","REV_AT_EPOCH":"4693","NORAD_CAT_ID":"47677","CENTER_NAME":"EARTH","GP_ID":"191694387","DECAY_DATE":null,"FILE":"3240057","MEAN_ANOMALY":"271.4436","COUNTRY_CODE":"US","EPOCH":"2021-12-14T12:19:49.561248","TIME_SYSTEM":"UTC","PERIOD":"95.592","INCLINATION":"53.0546","TLE_LINE1":"1 47677U 21012BK  21348.51376807  .00000416  00000-0  46840-4 0  9999","OBJECT_ID":"2021-012BK","MEAN_MOTION":"15.06407363","RA_OF_ASC_NODE":"172.6746","RCS_SIZE":"LARGE","BSTAR":"0.00004684000000","PERIAPSIS":"545.638","MEAN_MOTION_DOT":"0.00000416","ARG_OF_PERICENTER":"88.6810","OBJECT_NAME":"STARLINK-2090","LAUNCH_DATE":"2021-02-16","APOAPSIS":"548.744","REF_FRAME":"TEME","MEAN_ELEMENT_THEORY":"SGP4","ELEMENT_SET_NO":"999","TLE_LINE2":"2 47677  53.0546 172.6746 0002243  88.6810 271.4436 15.06407363 46935","SITE":"AFETR","MEAN_MOTION_DDOT":"0.0000000000000","OBJECT_TYPE":"PAYLOAD","SEMIMAJOR_AXIS":"6925.326","CLASSIFICATION_TYPE":"U","EPHEMERIS_TYPE":"0"},{"GP_ID":"191695638","CENTER_NAME":"EARTH","DECAY_DATE":null,"FILE":"3240057","MEAN_ANOMALY":"273.5065","ECCENTRICITY":"0.00019100","REV_AT_EPOCH":"4695","NORAD_CAT_ID":"47679","TLE_LINE1":"1 47679U 21012BM  21348.54234179  .00000279  00000-0  37625-4 0  9997","OBJECT_ID":"2021-012BM","MEAN_MOTION":"15.06383103","RA_OF_ASC_NODE":"172.5537","COUNTRY_CODE":"US","EPOCH":"2021-12-14T13:00:58.330656","TIME_SYSTEM":"UTC","PERIOD":"95.593","INCLINATION":"53.0542","LAUNCH_DATE":"2021-02-16","RCS_SIZE":"LARGE","BSTAR":"0.00003762500000","PERIAPSIS":"545.943","MEAN_MOTION_DOT":"0.00000279","ARG_OF_PERICENTER":"86.6142","OBJECT_NAME":"STARLINK-2095","OBJECT_TYPE":"PAYLOAD","EPHEMERIS_TYPE":"0","SEMIMAJOR_AXIS":"6925.400","CLASSIFICATION_TYPE":"U","APOAPSIS":"548.588","MEAN_ELEMENT_THEORY":"SGP4","REF_FRAME":"TEME","ELEMENT_SET_NO":"999","TLE_LINE2":"2 47679  53.0542 172.5537 0001910  86.6142 273.5065 15.06383103 46954","SITE":"AFETR","MEAN_MOTION_DDOT":"0.0000000000000"},{"ARG_OF_PERICENTER":"53.3412","OBJECT_NAME":"STARLINK-2068","PERIAPSIS":"545.645","MEAN_MOTION_DOT":"-0.00000359","RCS_SIZE":"LARGE","BSTAR":"-0.00000519090000","LAUNCH_DATE":"2021-03-04","MEAN_MOTION_DDOT":"0.0000000000000","ELEMENT_SET_NO":"999","SITE":"AFETR","TLE_LINE2":"2 47722  53.0571 298.6524 0002294  53.3412 306.7788 15.06393435 44912","MEAN_ELEMENT_THEORY":"SGP4","REF_FRAME":"TEME","APOAPSIS":"548.822","SEMIMAJOR_AXIS":"6925.369","CLASSIFICATION_TYPE":"U","EPHEMERIS_TYPE":"0","OBJECT_TYPE":"PAYLOAD","REV_AT_EPOCH":"4491","NORAD_CAT_ID":"47722","ECCENTRICITY":"0.00022940","FILE":"3240057","MEAN_ANOMALY":"306.7788","DECAY_DATE":null,"CENTER_NAME":"EARTH","GP_ID":"191695893","PERIOD":"95.593","INCLINATION":"53.0571","COUNTRY_CODE":"US","EPOCH":"2021-12-14T07:07:18.525216","TIME_SYSTEM":"UTC","MEAN_MOTION":"15.06393435","OBJECT_ID":"2021-017A","RA_OF_ASC_NODE":"298.6524","TLE_LINE1":"1 47722U 21017A   21348.29674219 -.00000359  00000-0 -51909-5 0  9999"},{"ECCENTRICITY":"0.00028030","REV_AT_EPOCH":"4580","NORAD_CAT_ID":"47723","DECAY_DATE":null,"FILE":"3240057","MEAN_ANOMALY":"289.2442","CENTER_NAME":"EARTH","GP_ID":"191694142","PERIOD":"95.593","INCLINATION":"53.0544","EPOCH":"2021-12-14T09:27:20.583072","COUNTRY_CODE":"US","TIME_SYSTEM":"UTC","OBJECT_ID":"2021-017B","MEAN_MOTION":"15.06392735","RA_OF_ASC_NODE":"233.1942","TLE_LINE1":"1 47723U 21017B   21348.39398823 -.00000957  00000-0 -45347-4 0  9997","MEAN_MOTION_DOT":"-0.00000957","PERIAPSIS":"545.295","ARG_OF_PERICENTER":"70.8850","OBJECT_NAME":"STARLINK-2107","RCS_SIZE":"LARGE","BSTAR":"-0.00004534700000","LAUNCH_DATE":"2021-03-04","ELEMENT_SET_NO":"999","SITE":"AFETR","TLE_LINE2":"2 47723  53.0544 233.1942 0002803  70.8850 289.2442 15.06392735 45800","MEAN_MOTION_DDOT":"0.0000000000000","APOAPSIS":"549.177","REF_FRAME":"TEME","MEAN_ELEMENT_THEORY":"SGP4","SEMIMAJOR_AXIS":"6925.371","CLASSIFICATION_TYPE":"U","EPHEMERIS_TYPE":"0","OBJECT_TYPE":"PAYLOAD"},{"BSTAR":"0.00006338900000","RCS_SIZE":"LARGE","PERIAPSIS":"545.379","MEAN_MOTION_DOT":"0.00000662","OBJECT_NAME":"STARLINK-2116","ARG_OF_PERICENTER":"68.7588","LAUNCH_DATE":"2021-03-04","APOAPSIS":"549.059","MEAN_ELEMENT_THEORY":"SGP4","REF_FRAME":"TEME","TLE_LINE2":"2 47724  53.0533 232.4384 0002657  68.7588 291.3685 15.06398351 45793","SITE":"AFETR","ELEMENT_SET_NO":"999","MEAN_MOTION_DDOT":"0.0000000000000","OBJECT_TYPE":"PAYLOAD","SEMIMAJOR_AXIS":"6925.354","CLASSIFICATION_TYPE":"U","EPHEMERIS_TYPE":"0","ECCENTRICITY":"0.00026570","NORAD_CAT_ID":"47724","REV_AT_EPOCH":"4579","CENTER_NAME":"EARTH","GP_ID":"191694392","DECAY_DATE":null,"MEAN_ANOMALY":"291.3685","FILE":"3240057","TIME_SYSTEM":"UTC","EPOCH":"2021-12-14T13:31:29.153568","COUNTRY_CODE":"US","PERIOD":"95.592","INCLINATION":"53.0533","TLE_LINE1":"1 47724U 21017C   21348.56353187  .00000662  00000-0  63389-4 0  9998","OBJECT_ID":"2021-017C","MEAN_MOTION":"15.06398351","RA_OF_ASC_NODE":"232.4384"},{"DECAY_DATE":null,"FILE":"3240057","MEAN_ANOMALY":"304.0852","CENTER_NAME":"EARTH","GP_ID":"191695643","ECCENTRICITY":"0.00020620","REV_AT_EPOCH":"4478","NORAD_CAT_ID":"47725","RA_OF_ASC_NODE":"303.7872","OBJECT_ID":"2021-017D","MEAN_MOTION":"15.06396891","TLE_LINE1":"1 47725U 21017D   21348.26589116  .00001338  00000-0  10872-3 0  9998","INCLINATION":"53.0570","PERIOD":"95.592","COUNTRY_CODE":"US","EPOCH":"2021-12-14T06:22:52.996224","TIME_SYSTEM":"UTC","LAUNCH_DATE":"2021-03-04","PERIAPSIS":"545.795","MEAN_MOTION_DOT":"0.00001338","ARG_OF_PERICENTER":"56.0333","OBJECT_NAME":"STARLINK-2125","RCS_SIZE":"LARGE","BSTAR":"0.00010872000000","CLASSIFICATION_TYPE":"U","SEMIMAJOR_AXIS":"6925.358","EPHEMERIS_TYPE":"0","OBJECT_TYPE":"PAYLOAD","ELEMENT_SET_NO":"999","SITE":"AFETR","TLE_LINE2":"2 47725  53.0570 303.7872 0002062  56.0333 304.0852 15.06396891 44780","MEAN_MOTION_DDOT":"0.0000000000000","APOAPSIS":"548.651","MEAN_ELEMENT_THEORY":"SGP4","REF_FRAME":"TEME"},{"ECCENTRICITY":"0.00022840","NORAD_CAT_ID":"47726","REV_AT_EPOCH":"4424","DECAY_DATE":null,"MEAN_ANOMALY":"299.5952","FILE":"3240249","CENTER_NAME":"EARTH","GP_ID":"191701131","INCLINATION":"53.0566","PERIOD":"95.592","TIME_SYSTEM":"UTC","COUNTRY_CODE":"US","EPOCH":"2021-12-14T20:21:30.242016","OBJECT_ID":"2021-017E","MEAN_MOTION":"15.06401483","RA_OF_ASC_NODE":"301.1676","TLE_LINE1":"1 47726U 21017E   21348.84826669  .00000200  00000-0  32335-4 0  9996","PERIAPSIS":"545.627","MEAN_MOTION_DOT":"0.00000200","OBJECT_NAME":"STARLINK-2126","ARG_OF_PERICENTER":"60.5264","BSTAR":"0.00003233500000","RCS_SIZE":"MEDIUM","LAUNCH_DATE":"2021-03-04","TLE_LINE2":"2 47726  53.0566 301.1676 0002284  60.5264 299.5952 15.06401483 44243","SITE":"AFETR","ELEMENT_SET_NO":"999","MEAN_MOTION_DDOT":"0.0000000000000","APOAPSIS":"548.791","MEAN_ELEMENT_THEORY":"SGP4","REF_FRAME":"TEME","SEMIMAJOR_AXIS":"6925.344","EPHEMERIS_TYPE":"0","CLASSIFICATION_TYPE":"U","OBJECT_TYPE":"PAYLOAD"},{"TIME_SYSTEM":"UTC","EPOCH":"2021-12-14T01:40:13.069344","COUNTRY_CODE":"US","PERIOD":"95.593","INCLINATION":"53.0540","TLE_LINE1":"1 47727U 21017F   21348.06959571 -.00000896  00000-0 -41252-4 0  9991","RA_OF_ASC_NODE":"224.6524","OBJECT_ID":"2021-017F","MEAN_MOTION":"15.06390526","NORAD_CAT_ID":"47727","REV_AT_EPOCH":"4590","ECCENTRICITY":"0.00018130","CENTER_NAME":"EARTH","GP_ID":"191694642","MEAN_ANOMALY":"292.2655","FILE":"3240057","DECAY_DATE":null,"MEAN_ELEMENT_THEORY":"SGP4","REF_FRAME":"TEME","APOAPSIS":"548.498","MEAN_MOTION_DDOT":"0.0000000000000","TLE_LINE2":"2 47727  53.0540 224.6524 0001813  67.8526 292.2655 15.06390526 45904","SITE":"AFETR","ELEMENT_SET_NO":"999","OBJECT_TYPE":"PAYLOAD","SEMIMAJOR_AXIS":"6925.378","CLASSIFICATION_TYPE":"U","EPHEMERIS_TYPE":"0","BSTAR":"-0.00004125200000","RCS_SIZE":"LARGE","OBJECT_NAME":"STARLINK-2129","ARG_OF_PERICENTER":"67.8526","PERIAPSIS":"545.987","MEAN_MOTION_DOT":"-0.00000896","LAUNCH_DATE":"2021-03-04"},{"EPOCH":"2021-12-14T16:33:16.006176","COUNTRY_CODE":"US","TIME_SYSTEM":"UTC","INCLINATION":"53.0558","PERIOD":"95.592","TLE_LINE1":"1 47728U 21017G   21348.68976859  .00001206  00000-0  99849-4 0  9997","MEAN_MOTION":"15.06399716","OBJECT_ID":"2021-017G","RA_OF_ASC_NODE":"301.8892","REV_AT_EPOCH":"4422","NORAD_CAT_ID":"47728","ECCENTRICITY":"0.00020590","GP_ID":"191700002","CENTER_NAME":"EARTH","FILE":"3240172","MEAN_ANOMALY":"298.6173","DECAY_DATE":null,"MEAN_ELEMENT_THEORY":"SGP4","REF_FRAME":"TEME","APOAPSIS":"548.640","MEAN_MOTION_DDOT":"0.0000000000000","ELEMENT_SET_NO":"999","SITE":"AFETR","TLE_LINE2":"2 47728  53.0558 301.8892 0002059  61.5023 298.6173 15.06399716 44225","OBJECT_TYPE":"PAYLOAD","EPHEMERIS_TYPE":"0","SEMIMAJOR_AXIS":"6925.349","CLASSIFICATION_TYPE":"U","RCS_SIZE":"LARGE","BSTAR":"0.00009984900000","ARG_OF_PERICENTER":"61.5023","OBJECT_NAME":"STARLINK-2131","MEAN_MOTION_DOT":"0.00001206","PERIAPSIS":"545.788","LAUNCH_DATE":"2021-03-04"},{"LAUNCH_DATE":"2021-03-04","RCS_SIZE":"LARGE","BSTAR":"0.00003300000000","PERIAPSIS":"545.392","MEAN_MOTION_DOT":"0.00000210","ARG_OF_PERICENTER":"60.8919","OBJECT_NAME":"STARLINK-2132","OBJECT_TYPE":"PAYLOAD","CLASSIFICATION_TYPE":"U","SEMIMAJOR_AXIS":"6925.363","EPHEMERIS_TYPE":"0","APOAPSIS":"549.065","MEAN_ELEMENT_THEORY":"SGP4","REF_FRAME":"TEME","ELEMENT_SET_NO":"999","SITE":"AFETR","TLE_LINE2":"2 47729  53.0551 248.0186 0002652  60.8919 299.2335 15.06395220 45574","MEAN_MOTION_DDOT":"0.0000000000000","GP_ID":"191695144","CENTER_NAME":"EARTH","DECAY_DATE":null,"FILE":"3240057","MEAN_ANOMALY":"299.2335","ECCENTRICITY":"0.00026520","REV_AT_EPOCH":"4557","NORAD_CAT_ID":"47729","TLE_LINE1":"1 47729U 21017H   21348.43404034  .00000210  00000-0  33000-4 0  9993","OBJECT_ID":"2021-017H","MEAN_MOTION":"15.06395220","RA_OF_ASC_NODE":"248.0186","EPOCH":"2021-12-14T10:25:01.085376","COUNTRY_CODE":"US","TIME_SYSTEM":"UTC","PERIOD":"95.592","INCLINATION":"53.0551"}];
